sat19232
1 19232U 78100AB  20046.86449153  .00000083  00000-0  13193-2 0  9995
2 19232  82.3309  98.8226 0189139 356.1189 179.0309 11.67446159353210
